[{"OBJECT_NAME":"STARLINK-32406","OBJECT_ID":"2024-184P","EPOCH":"2026-03-09T05:14:52.855584","MEAN_MOTION":15.3019186,"ECCENTRICITY":0.00010421,"INCLINATION":53.1609,"RA_OF_ASC_NODE":16.2206,"ARG_OF_PERICENTER":108.6313,"MEAN_ANOMALY":251.4801,"EPHEMERIS_TYPE":0,"CLASSIFICATION_TYPE":"U","NORAD_CAT_ID":61545,"ELEMENT_SET_NO":999,"REV_AT_EPOCH":7843,"BSTAR":-1.1875451e-5,"MEAN_MOTION_DOT":-7.11e-6,"MEAN_MOTION_DDOT":0},{"OBJECT_NAME":"ELECTRON KICK STAGE R\/B","OBJECT_ID":"2024-248B","EPOCH":"2026-03-09T20:49:52.700448","MEAN_MOTION":15.26602112,"ECCENTRICITY":0.00382118,"INCLINATION":97.6105,"RA_OF_ASC_NODE":34.9036,"ARG_OF_PERICENTER":284.4829,"MEAN_ANOMALY":75.2171,"EPHEMERIS_TYPE":0,"CLASSIFICATION_TYPE":"U","NORAD_CAT_ID":62407,"ELEMENT_SET_NO":999,"REV_AT_EPOCH":6727,"BSTAR":0.0006831254,"MEAN_MOTION_DOT":0.00018217,"MEAN_MOTION_DDOT":0}]
